OBJECT_NAME,OBJECT_ID,EPOCH,MEAN_MOTION,ECCENTRICITY,INCLINATION,RA_OF_ASC_NODE,ARG_OF_PERICENTER,MEAN_ANOMALY,EPHEMERIS_TYPE,CLASSIFICATION_TYPE,NORAD_CAT_ID,ELEMENT_SET_NO,REV_AT_EPOCH,BSTAR,MEAN_MOTION_DOT,MEAN_MOTION_DDOT
IONOSFERA-M 4,2025-155B,2026-06-16T03:42:23.948640,14.21488493,.0001009,98.6031,129.0029,120.2196,239.9081,0,U,64877,999,4625,.34566E-4,.33E-6,0
MICROCARB,2025-156A,2026-06-16T04:45:32.853024,14.72324664,.0014977,97.9832,244.3533,275.6591,84.2909,0,U,64899,999,4782,.76881E-4,.437E-5,0
CO3D 3,2025-156B,2026-06-16T04:48:24.795072,15.20204636,.0001474,97.4333,245.9074,133.5547,226.5810,0,U,64900,999,4938,.15854E-3,.3366E-4,0
CO3D 4,2025-156C,2026-06-16T04:48:38.104128,15.20191970,.0000262,97.4333,245.9076,357.9830,2.1404,0,U,64901,999,4938,.1523E-4,.262E-5,0
CO3D 2,2025-156D,2026-06-16T04:00:36.983808,15.20212776,.0001521,97.4332,245.7736,109.7183,250.4216,0,U,64902,999,4937,.18919E-3,.4031E-4,0
CO3D 1,2025-156E,2026-06-16T04:00:50.120064,15.20212831,.0001317,97.4332,245.7738,115.1565,244.9807,0,U,64903,999,4937,.22165E-3,.4735E-4,0
PRSC-S1,2025-164A,2026-06-16T01:41:39.706080,15.06450942,.0006786,41.1314,294.1014,336.8388,23.2119,0,U,65055,999,4826,.29732E-3,.429E-4,0
SENTINEL-6B,2025-264A,2026-06-16T05:26:52.473408,12.80929976,.0008019,66.0395,137.1728,269.2141,90.7956,0,U,66514,999,2704,-.46022E-4,-.72E-6,0
CAS500-3,2025-274F,2026-06-16T01:44:07.571040,14.88318843,.0006726,97.7446,95.1486,112.8954,247.2974,0,U,66655,999,2998,.12239E-3,.1079E-4,0
CSG-3,2026-001A,2026-06-15T23:36:44.435232,14.82153056,.0001355,97.8885,350.6030,94.2525,265.8843,0,U,67304,999,2428,.37496E-4,.246E-5,0
PRSC-E03,2026-092A,2026-06-16T04:39:31.053888,15.06664235,.000391,38.0006,95.5360,356.5770,3.4965,0,U,68835,999,780,.15691E-3,.2264E-4,0
CAS500-2,2026-100AK,2026-06-16T03:57:43.954848,15.20580167,.0010814,97.4079,65.0381,37.9855,322.2141,0,U,69013,999,665,.22577E-3,.4884E-4,0
