IONOSFERA-M 4           
1 64877U 25155B   26167.15444385  .00000033  00000+0  34566-4 0  9999
2 64877  98.6031 129.0029 0001009 120.2196 239.9081 14.21488493 46258
MICROCARB               
1 64899U 25156A   26167.19829691  .00000437  00000+0  76881-4 0  9999
2 64899  97.9832 244.3533 0014977 275.6591  84.2909 14.72324664 47825
CO3D 3                  
1 64900U 25156B   26167.20028698  .00003366  00000+0  15854-3 0  9998
2 64900  97.4333 245.9074 0001474 133.5547 226.5810 15.20204636 49382
CO3D 4                  
1 64901U 25156C   26167.20044102  .00000262  00000+0  15230-4 0  9998
2 64901  97.4333 245.9076 0000262 357.9830   2.1404 15.20191970 49389
CO3D 2                  
1 64902U 25156D   26167.16709472  .00004031  00000+0  18919-3 0  9996
2 64902  97.4332 245.7736 0001521 109.7183 250.4216 15.20212776 49379
CO3D 1                  
1 64903U 25156E   26167.16724676  .00004735  00000+0  22165-3 0  9999
2 64903  97.4332 245.7738 0001317 115.1565 244.9807 15.20212831 49376
PRSC-S1                 
1 65055U 25164A   26167.07059845  .00004290  00000+0  29732-3 0  9999
2 65055  41.1314 294.1014 0006786 336.8388  23.2119 15.06450942 48268
SENTINEL-6B             
1 66514U 25264A   26167.22699622 -.00000072  00000+0 -46022-4 0  9999
2 66514  66.0395 137.1728 0008019 269.2141  90.7956 12.80929976 27047
CAS500-3                
1 66655U 25274F   26167.07230985  .00001079  00000+0  12239-3 0  9990
2 66655  97.7446  95.1486 0006726 112.8954 247.2974 14.88318843 29982
CSG-3                   
1 67304U 26001A   26166.98384763  .00000246  00000+0  37496-4 0  9992
2 67304  97.8885 350.6030 0001355  94.2525 265.8843 14.82153056 24282
PRSC-E03                
1 68835U 26092A   26167.19410942  .00002264  00000+0  15691-3 0  9999
2 68835  38.0006  95.5360 0003910 356.5770   3.4965 15.06664235  7803
CAS500-2                
1 69013U 26100AK  26167.16509207  .00004884  00000+0  22577-3 0  9999
2 69013  97.4079  65.0381 0010814  37.9855 322.2141 15.20580167  6658
